ONEWEB-0670             
1 55829U 23029AK  23329.86648725  .00000244  00000+0  62432-3 0  9999
2 55829  87.8965 115.6931 0001214  78.1470 281.9796 13.14503367 36683
ONEWEB-0671             
1 55830U 23029AL  23329.92480927 -.00000022  00000+0 -87612-4 0  9990
2 55830  87.9180 130.9338 0001288  81.0019 279.1259 13.19725237 35677
ONEWEB-0672             
1 55831U 23029AM  23329.86033205  .00000097  00000+0  20723-3 0  9996
2 55831  87.9184 100.4166 0001931 104.5813 255.5534 13.20769093 37813
ONEWEB-0673             
1 55832U 23029AN  23329.90111741  .00000011  00000+0 -49887-5 0  9995
2 55832  87.9075 130.9179 0001179  89.2126 270.9142 13.19725197 35678
ONEWEB-0674             
1 55833U 23029AP  23329.91089366 -.00000089  00000+0 -27374-3 0  9995
2 55833  87.8961 115.6997 0001361  70.2552 289.8724 13.14500708 36676
ONEWEB-0675             
1 55834U 23029AQ  23329.91690333  .00000027  00000+0  35828-4 0  9992
2 55834  87.9186 130.9284 0001720 109.1842 250.9477 13.19725754 35699
ONEWEB-0720             
1 55835U 23029AR  23329.90899713  .00000153  00000+0  35103-3 0  9990
2 55835  87.9185 130.9332 0000913  96.1015 264.0222 13.19724817 35618
ONEWEB-0537             
1 56046U 23043A   23330.25001157  .00001715  00000+0  36467-2 0  9996
2 56046  87.9591  54.6498 0002187 119.0982 326.0660 13.29965401 36952
